[{"OBJECT_NAME":"ONEWEB-0273","OBJECT_ID":"2021-060AA","EPOCH":"2025-07-30T05:11:06.885024","MEAN_MOTION":13.16595947,"ECCENTRICITY":0.0002001,"INCLINATION":87.9046,"RA_OF_ASC_NODE":292.961,"ARG_OF_PERICENTER":92.208,"MEAN_ANOMALY":267.928,"EPHEMERIS_TYPE":0,"CLASSIFICATION_TYPE":"U","NORAD_CAT_ID":48991,"ELEMENT_SET_NO":999,"REV_AT_EPOCH":19852,"BSTAR":0.0003357,"MEAN_MOTION_DOT":1.41e-6,"MEAN_MOTION_DDOT":0},{"OBJECT_NAME":"ONEWEB-0274","OBJECT_ID":"2021-060AB","EPOCH":"2025-07-29T22:29:51.539712","MEAN_MOTION":13.16593975,"ECCENTRICITY":0.0002397,"INCLINATION":87.9044,"RA_OF_ASC_NODE":293.0508,"ARG_OF_PERICENTER":102.8687,"MEAN_ANOMALY":257.2712,"EPHEMERIS_TYPE":0,"CLASSIFICATION_TYPE":"U","NORAD_CAT_ID":48992,"ELEMENT_SET_NO":999,"REV_AT_EPOCH":19722,"BSTAR":-6.2936e-5,"MEAN_MOTION_DOT":-1.1e-7,"MEAN_MOTION_DDOT":0},{"OBJECT_NAME":"ONEWEB-0275","OBJECT_ID":"2021-060AC","EPOCH":"2025-07-29T22:13:54.410880","MEAN_MOTION":13.16594277,"ECCENTRICITY":0.0002122,"INCLINATION":87.9049,"RA_OF_ASC_NODE":293.0141,"ARG_OF_PERICENTER":97.4279,"MEAN_ANOMALY":262.7093,"EPHEMERIS_TYPE":0,"CLASSIFICATION_TYPE":"U","NORAD_CAT_ID":48993,"ELEMENT_SET_NO":999,"REV_AT_EPOCH":19715,"BSTAR":-5.9779e-5,"MEAN_MOTION_DOT":-1.0e-7,"MEAN_MOTION_DDOT":0},{"OBJECT_NAME":"ONEWEB-0276","OBJECT_ID":"2021-060AD","EPOCH":"2025-07-29T17:33:27.621216","MEAN_MOTION":13.16596635,"ECCENTRICITY":0.0001916,"INCLINATION":87.9049,"RA_OF_ASC_NODE":293.0498,"ARG_OF_PERICENTER":93.8383,"MEAN_ANOMALY":266.2967,"EPHEMERIS_TYPE":0,"CLASSIFICATION_TYPE":"U","NORAD_CAT_ID":48994,"ELEMENT_SET_NO":999,"REV_AT_EPOCH":19714,"BSTAR":-0.00017,"MEAN_MOTION_DOT":-5.2e-7,"MEAN_MOTION_DDOT":0},{"OBJECT_NAME":"ONEWEB-0277","OBJECT_ID":"2021-060AE","EPOCH":"2025-07-29T17:51:42.851808","MEAN_MOTION":13.16595095,"ECCENTRICITY":0.0002335,"INCLINATION":87.9046,"RA_OF_ASC_NODE":293.0819,"ARG_OF_PERICENTER":91.3686,"MEAN_ANOMALY":268.7712,"EPHEMERIS_TYPE":0,"CLASSIFICATION_TYPE":"U","NORAD_CAT_ID":48995,"ELEMENT_SET_NO":999,"REV_AT_EPOCH":19713,"BSTAR":-1.1304e-5,"MEAN_MOTION_DOT":9.0e-8,"MEAN_MOTION_DDOT":0},{"OBJECT_NAME":"ONEWEB-0278","OBJECT_ID":"2021-060AF","EPOCH":"2025-07-30T04:34:38.103456","MEAN_MOTION":13.16595651,"ECCENTRICITY":0.0001758,"INCLINATION":87.9048,"RA_OF_ASC_NODE":292.9551,"ARG_OF_PERICENTER":97.2872,"MEAN_ANOMALY":262.8458,"EPHEMERIS_TYPE":0,"CLASSIFICATION_TYPE":"U","NORAD_CAT_ID":48996,"ELEMENT_SET_NO":999,"REV_AT_EPOCH":19863,"BSTAR":1.4703e-5,"MEAN_MOTION_DOT":1.8e-7,"MEAN_MOTION_DDOT":0},{"OBJECT_NAME":"ONEWEB-0279","OBJECT_ID":"2021-060AG","EPOCH":"2025-07-29T17:49:25.806720","MEAN_MOTION":13.16593184,"ECCENTRICITY":0.0002321,"INCLINATION":87.9048,"RA_OF_ASC_NODE":293.0402,"ARG_OF_PERICENTER":94.8994,"MEAN_ANOMALY":265.2402,"EPHEMERIS_TYPE":0,"CLASSIFICATION_TYPE":"U","NORAD_CAT_ID":48997,"ELEMENT_SET_NO":999,"REV_AT_EPOCH":19719,"BSTAR":3.8801e-5,"MEAN_MOTION_DOT":2.8e-7,"MEAN_MOTION_DDOT":0},{"OBJECT_NAME":"ONEWEB-0280","OBJECT_ID":"2021-060AH","EPOCH":"2025-07-30T05:07:41.799936","MEAN_MOTION":13.16593737,"ECCENTRICITY":0.0001917,"INCLINATION":87.905,"RA_OF_ASC_NODE":292.9533,"ARG_OF_PERICENTER":87.4615,"MEAN_ANOMALY":272.6735,"EPHEMERIS_TYPE":0,"CLASSIFICATION_TYPE":"U","NORAD_CAT_ID":48998,"ELEMENT_SET_NO":999,"REV_AT_EPOCH":19848,"BSTAR":0.0002204,"MEAN_MOTION_DOT":9.7e-7,"MEAN_MOTION_DDOT":0},{"OBJECT_NAME":"ONEWEB-0281","OBJECT_ID":"2021-060AJ","EPOCH":"2025-07-30T05:15:41.025312","MEAN_MOTION":13.16594117,"ECCENTRICITY":0.0002108,"INCLINATION":87.9048,"RA_OF_ASC_NODE":292.9497,"ARG_OF_PERICENTER":101.5519,"MEAN_ANOMALY":258.5848,"EPHEMERIS_TYPE":0,"CLASSIFICATION_TYPE":"U","NORAD_CAT_ID":48999,"ELEMENT_SET_NO":999,"REV_AT_EPOCH":19857,"BSTAR":0.00041383,"MEAN_MOTION_DOT":1.71e-6,"MEAN_MOTION_DDOT":0},{"OBJECT_NAME":"ONEWEB-0282","OBJECT_ID":"2021-060AK","EPOCH":"2025-07-29T19:02:23.056224","MEAN_MOTION":13.16595882,"ECCENTRICITY":0.0002063,"INCLINATION":87.9042,"RA_OF_ASC_NODE":293.0454,"ARG_OF_PERICENTER":93.4135,"MEAN_ANOMALY":266.7232,"EPHEMERIS_TYPE":0,"CLASSIFICATION_TYPE":"U","NORAD_CAT_ID":49000,"ELEMENT_SET_NO":999,"REV_AT_EPOCH":19718,"BSTAR":-0.00030065,"MEAN_MOTION_DOT":-1.02e-6,"MEAN_MOTION_DDOT":0},{"OBJECT_NAME":"ONEWEB-0283","OBJECT_ID":"2021-060AL","EPOCH":"2025-07-30T05:43:01.966944","MEAN_MOTION":13.1659448,"ECCENTRICITY":0.0002192,"INCLINATION":87.9044,"RA_OF_ASC_NODE":292.9605,"ARG_OF_PERICENTER":94.371,"MEAN_ANOMALY":265.7672,"EPHEMERIS_TYPE":0,"CLASSIFICATION_TYPE":"U","NORAD_CAT_ID":49001,"ELEMENT_SET_NO":999,"REV_AT_EPOCH":19857,"BSTAR":-0.0004351,"MEAN_MOTION_DOT":-1.53e-6,"MEAN_MOTION_DDOT":0},{"OBJECT_NAME":"ONEWEB-0284","OBJECT_ID":"2021-060AM","EPOCH":"2025-07-29T18:37:17.828256","MEAN_MOTION":13.1659607,"ECCENTRICITY":0.0001686,"INCLINATION":87.906,"RA_OF_ASC_NODE":293.0269,"ARG_OF_PERICENTER":94.4914,"MEAN_ANOMALY":265.641,"EPHEMERIS_TYPE":0,"CLASSIFICATION_TYPE":"U","NORAD_CAT_ID":49002,"ELEMENT_SET_NO":999,"REV_AT_EPOCH":19717,"BSTAR":-0.00016992,"MEAN_MOTION_DOT":-5.2e-7,"MEAN_MOTION_DDOT":0},{"OBJECT_NAME":"ONEWEB-0285","OBJECT_ID":"2021-075A","EPOCH":"2025-07-29T19:20:22.654464","MEAN_MOTION":13.12446412,"ECCENTRICITY":0.0001707,"INCLINATION":87.8848,"RA_OF_ASC_NODE":54.7517,"ARG_OF_PERICENTER":82.9326,"MEAN_ANOMALY":277.1997,"EPHEMERIS_TYPE":0,"CLASSIFICATION_TYPE":"U","NORAD_CAT_ID":49075,"ELEMENT_SET_NO":999,"REV_AT_EPOCH":19292,"BSTAR":0.00015355,"MEAN_MOTION_DOT":6.8e-7,"MEAN_MOTION_DDOT":0},{"OBJECT_NAME":"ONEWEB-0286","OBJECT_ID":"2021-075B","EPOCH":"2025-07-29T22:33:49.514688","MEAN_MOTION":13.12442548,"ECCENTRICITY":0.0001673,"INCLINATION":87.8869,"RA_OF_ASC_NODE":54.7521,"ARG_OF_PERICENTER":91.1321,"MEAN_ANOMALY":268.9999,"EPHEMERIS_TYPE":0,"CLASSIFICATION_TYPE":"U","NORAD_CAT_ID":49076,"ELEMENT_SET_NO":999,"REV_AT_EPOCH":19229,"BSTAR":0.0012229,"MEAN_MOTION_DOT":4.53e-6,"MEAN_MOTION_DDOT":0},{"OBJECT_NAME":"ONEWEB-0287","OBJECT_ID":"2021-075C","EPOCH":"2025-07-30T02:54:46.380096","MEAN_MOTION":13.17649967,"ECCENTRICITY":0.0001423,"INCLINATION":87.9044,"RA_OF_ASC_NODE":69.9641,"ARG_OF_PERICENTER":93.4704,"MEAN_ANOMALY":266.659,"EPHEMERIS_TYPE":0,"CLASSIFICATION_TYPE":"U","NORAD_CAT_ID":49077,"ELEMENT_SET_NO":999,"REV_AT_EPOCH":19218,"BSTAR":0.00015934,"MEAN_MOTION_DOT":7.5e-7,"MEAN_MOTION_DDOT":0},{"OBJECT_NAME":"ONEWEB-0288","OBJECT_ID":"2021-075D","EPOCH":"2025-07-29T20:09:12.161376","MEAN_MOTION":13.12443251,"ECCENTRICITY":0.0001597,"INCLINATION":87.8853,"RA_OF_ASC_NODE":54.7379,"ARG_OF_PERICENTER":84.1674,"MEAN_ANOMALY":275.9636,"EPHEMERIS_TYPE":0,"CLASSIFICATION_TYPE":"U","NORAD_CAT_ID":49078,"ELEMENT_SET_NO":999,"REV_AT_EPOCH":19290,"BSTAR":-0.00049078,"MEAN_MOTION_DOT":-1.64e-6,"MEAN_MOTION_DDOT":0},{"OBJECT_NAME":"ONEWEB-0289","OBJECT_ID":"2021-075E","EPOCH":"2025-07-30T03:42:28.443168","MEAN_MOTION":13.17098761,"ECCENTRICITY":0.0001584,"INCLINATION":87.903,"RA_OF_ASC_NODE":69.9874,"ARG_OF_PERICENTER":66.3442,"MEAN_ANOMALY":293.7856,"EPHEMERIS_TYPE":0,"CLASSIFICATION_TYPE":"U","NORAD_CAT_ID":49079,"ELEMENT_SET_NO":999,"REV_AT_EPOCH":19276,"BSTAR":0.00014454,"MEAN_MOTION_DOT":6.9e-7,"MEAN_MOTION_DDOT":0}]
