ONEWEB-0273             
1 48991U 21060AA  25211.21605191  .00000141  00000+0  33570-3 0  9992
2 48991  87.9046 292.9610 0002001  92.2080 267.9280 13.16595947198529
ONEWEB-0274             
1 48992U 21060AB  25210.93740208 -.00000011  00000+0 -62936-4 0  9997
2 48992  87.9044 293.0508 0002397 102.8687 257.2712 13.16593975197222
ONEWEB-0275             
1 48993U 21060AC  25210.92632420 -.00000010  00000+0 -59779-4 0  9993
2 48993  87.9049 293.0141 0002122  97.4279 262.7093 13.16594277197154
ONEWEB-0276             
1 48994U 21060AD  25210.73156969 -.00000052  00000+0 -17000-3 0  9998
2 48994  87.9049 293.0498 0001916  93.8383 266.2967 13.16596635197144
ONEWEB-0277             
1 48995U 21060AE  25210.74424597  .00000009  00000+0 -11304-4 0  9998
2 48995  87.9046 293.0819 0002335  91.3686 268.7712 13.16595095197137
ONEWEB-0278             
1 48996U 21060AF  25211.19071879  .00000018  00000+0  14703-4 0  9995
2 48996  87.9048 292.9551 0001758  97.2872 262.8458 13.16595651198637
ONEWEB-0279             
1 48997U 21060AG  25210.74265980  .00000028  00000+0  38801-4 0  9990
2 48997  87.9048 293.0402 0002321  94.8994 265.2402 13.16593184197195
ONEWEB-0280             
1 48998U 21060AH  25211.21367824  .00000097  00000+0  22040-3 0  9997
2 48998  87.9050 292.9533 0001917  87.4615 272.6735 13.16593737198488
ONEWEB-0281             
1 48999U 21060AJ  25211.21922483  .00000171  00000+0  41383-3 0  9990
2 48999  87.9048 292.9497 0002108 101.5519 258.5848 13.16594117198570
ONEWEB-0282             
1 49000U 21060AK  25210.79332241 -.00000102  00000+0 -30065-3 0  9994
2 49000  87.9042 293.0454 0002063  93.4135 266.7232 13.16595882197180
ONEWEB-0283             
1 49001U 21060AL  25211.23821721 -.00000153  00000+0 -43510-3 0  9996
2 49001  87.9044 292.9605 0002192  94.3710 265.7672 13.16594480198575
ONEWEB-0284             
1 49002U 21060AM  25210.77590079 -.00000052  00000+0 -16992-3 0  9996
2 49002  87.9060 293.0269 0001686  94.4914 265.6410 13.16596070197177
ONEWEB-0285             
1 49075U 21075A   25210.80581776  .00000068  00000+0  15355-3 0  9997
2 49075  87.8848  54.7517 0001707  82.9326 277.1997 13.12446412192927
ONEWEB-0286             
1 49076U 21075B   25210.94015642  .00000453  00000+0  12229-2 0  9991
2 49076  87.8869  54.7521 0001673  91.1321 268.9999 13.12442548192291
ONEWEB-0287             
1 49077U 21075C   25211.12137014  .00000075  00000+0  15934-3 0  9998
2 49077  87.9044  69.9641 0001423  93.4704 266.6590 13.17649967192181
ONEWEB-0288             
1 49078U 21075D   25210.83972409 -.00000164  00000+0 -49078-3 0  9998
2 49078  87.8853  54.7379 0001597  84.1674 275.9636 13.12443251192901
ONEWEB-0289             
1 49079U 21075E   25211.15449587  .00000069  00000+0  14454-3 0  9993
2 49079  87.9030  69.9874 0001584  66.3442 293.7856 13.17098761192762
